IRIDIUM 155             
1 43573U 18061E   24152.58794450  .00000280  00000+0  93013-4 0  9993
2 43573  86.3983   8.6986 0001878  89.4268 270.7143 14.34219057306345
IRIDIUM 154             
1 43574U 18061F   24152.56891650  .00000112  00000+0  32976-4 0  9997
2 43574  86.3988   8.8034 0002348  83.7855 276.3608 14.34217549306396
IRIDIUM 163             
1 43575U 18061G   24152.61965475  .00000141  00000+0  43115-4 0  9990
2 43575  86.3983   8.7208 0002140  87.0865 273.0576 14.34217011306372
IRIDIUM 156             
1 43576U 18061H   24152.59428715  .00000178  00000+0  56639-4 0  9994
2 43576  86.3985   8.7376 0002159  93.7838 266.3604 14.34218369306368
IRIDIUM 164             
1 43577U 18061J   24152.57526029  .00000389  00000+0  13181-3 0  9998
2 43577  86.3985   8.7741 0002461  87.8435 272.3042 14.34219848306409
IRIDIUM 159             
1 43578U 18061K   24152.61331475  .00000435  00000+0  14809-3 0  9993
2 43578  86.3983   8.7109 0002448  84.9416 275.2059 14.34220076306379
IRIDIUM 180             
1 43922U 19002A   24152.47327302  .00000173  00000+0  54688-4 0  9999
2 43922  86.3944 305.6523 0002201  87.9579 272.1868 14.34216998281967
IRIDIUM 176             
1 43923U 19002B   24152.46579544  .00001637  00000+0  25564-3 0  9992
2 43923  86.6072 305.6783 0002365  86.9210 273.2278 14.72251417289381
IRIDIUM 168             
1 43924U 19002C   24152.46693227  .00000417  00000+0  14191-3 0  9997
2 43924  86.3946 305.7112 0002251  94.3154 265.8299 14.34219467281941
IRIDIUM 173             
1 43925U 19002D   24152.45424701  .00000217  00000+0  70247-4 0  9999
2 43925  86.3942 305.6361 0002223  90.5541 269.5910 14.34218757281920
IRIDIUM 169             
1 43926U 19002E   24152.57106689  .00000189  00000+0  55414-4 0  9992
2 43926  86.4218 337.2131 0000736  15.3982 344.7238 14.38587774282882
IRIDIUM 172             
1 43927U 19002F   24152.51767316  .00000087  00000+0  24089-4 0  9998
2 43927  86.3941 305.6150 0002253  89.5682 270.5771 14.34218170281942
IRIDIUM 175             
1 43928U 19002G   24152.86787055  .00001506  00000+0  23492-3 0  9992
2 43928  86.1495 279.5659 0001878  90.0835 270.0597 14.72246483289430
IRIDIUM 171             
1 43929U 19002H   24152.84748970  .00000392  00000+0  13286-3 0  9996
2 43929  86.3954 305.7013 0002332  96.0358 264.1104 14.34218866281983
IRIDIUM 170             
1 43930U 19002J   24152.40398067  .00000107  00000+0  13047-4 0  9998
2 43930  86.6070 305.7097 0002237  85.5861 274.5611 14.72250115289380
IRIDIUM 167             
1 43931U 19002K   24152.49230176  .00000512  00000+0  17573-3 0  9991
2 43931  86.3943 305.6415 0002083  92.5595 267.5839 14.34220352281936
IRIDIUM 181             
1 56726U 23068S   24152.60979791  .00000603  00000+0  17240-3 0  9992
2 56726  86.8645 358.5198 0002131  93.0087 267.1359 14.43586398 54742
IRIDIUM 177             
1 56727U 23068T   24152.52762323  .00002325  00000+0  30250-3 0  9994
2 56727  86.1957 323.2744 0002389  96.8345 263.3147 14.80224872 55911
IRIDIUM 174             
1 56728U 23068U   24152.52219365  .00002329  00000+0  30312-3 0  9991
2 56728  86.1963 323.3793 0001976  88.8161 271.3286 14.80223556 55913
IRIDIUM 178             
1 56729U 23068V   24152.58440375  .00000794  00000+0  10105-3 0  9997
2 56729  86.5774 340.0280 0002096  79.9103 280.2355 14.80206987 55922
IRIDIUM 179             
1 56730U 23068W   24152.57877377  .00000847  00000+0  10787-3 0  9999
2 56730  86.6786 343.9551 0002210  77.1128 283.0341 14.80271745 55926
